start=new Date('2022-05-22T00:00:00.000Z').valueOf();
sats=[{"GP_ID":"204192325","REF_FRAME":"TEME","SEMIMAJOR_AXIS":"6925.371","ECCENTRICITY":"0.00018530","NORAD_CAT_ID":"47559","TIME_SYSTEM":"UTC","OBJECT_ID":"2021-009M","CLASSIFICATION_TYPE":"U","PERIOD":"95.593","BSTAR":"0.00007369200000","EPHEMERIS_TYPE":"0","ARG_OF_PERICENTER":"45.0784","TLE_LINE1":"1 47559U 21009M   22141.63595422  .00000816  00000-0  73692-4 0  9994","OBJECT_NAME":"STARLINK-1958","RCS_SIZE":"LARGE","LAUNCH_DATE":"2021-02-04","APOAPSIS":"548.519","MEAN_MOTION":"15.06392681","FILE":"3457577","PERIAPSIS":"545.953","MEAN_MOTION_DDOT":"0.0000000000000","COUNTRY_CODE":"US","INCLINATION":"53.0549","REV_AT_EPOCH":"7186","DECAY_DATE":null,"TLE_LINE2":"2 47559  53.0549 112.8339 0001853  45.0784 315.0355 15.06392681 71865","EPOCH":"2022-05-21T15:15:46.444608","RA_OF_ASC_NODE":"112.8339","OBJECT_TYPE":"PAYLOAD","MEAN_ELEMENT_THEORY":"SGP4","CENTER_NAME":"EARTH","MEAN_MOTION_DOT":"0.00000816","MEAN_ANOMALY":"315.0355","SITE":"AFETR","ELEMENT_SET_NO":"999"},{"OBJECT_TYPE":"PAYLOAD","TLE_LINE2":"2 47560  53.0523 112.8691 0002118  49.5444 310.5729 15.06405005 71867","RA_OF_ASC_NODE":"112.8691","EPOCH":"2022-05-21T15:05:09.163392","INCLINATION":"53.0523","COUNTRY_CODE":"US","DECAY_DATE":null,"REV_AT_EPOCH":"7186","MEAN_MOTION_DDOT":"0.0000000000000","PERIAPSIS":"545.731","ELEMENT_SET_NO":"999","MEAN_ANOMALY":"310.5729","SITE":"AFETR","CENTER_NAME":"EARTH","MEAN_MOTION_DOT":"0.00003499","MEAN_ELEMENT_THEORY":"SGP4","OBJECT_ID":"2021-009N","NORAD_CAT_ID":"47560","TIME_SYSTEM":"UTC","CLASSIFICATION_TYPE":"U","PERIOD":"95.592","SEMIMAJOR_AXIS":"6925.333","REF_FRAME":"TEME","ECCENTRICITY":"0.00021180","GP_ID":"204192590","LAUNCH_DATE":"2021-02-04","FILE":"3457577","MEAN_MOTION":"15.06405005","APOAPSIS":"548.665","TLE_LINE1":"1 47560U 21009N   22141.62857828  .00003499  00000-0  25364-3 0  9998","OBJECT_NAME":"STARLINK-1959","RCS_SIZE":"LARGE","EPHEMERIS_TYPE":"0","BSTAR":"0.00025364000000","ARG_OF_PERICENTER":"49.5444"},{"BSTAR":"0.00012280000000","EPHEMERIS_TYPE":"0","ARG_OF_PERICENTER":"62.1137","LAUNCH_DATE":"2021-02-04","APOAPSIS":"548.303","FILE":"3457577","MEAN_MOTION":"15.06403291","TLE_LINE1":"1 47561U 21009P   22141.68202543  .00001548  00000-0  12280-3 0  9999","RCS_SIZE":"LARGE","OBJECT_NAME":"STARLINK-1960","REF_FRAME":"TEME","SEMIMAJOR_AXIS":"6925.338","ECCENTRICITY":"0.00015870","GP_ID":"204193326","NORAD_CAT_ID":"47561","TIME_SYSTEM":"UTC","OBJECT_ID":"2021-009P","PERIOD":"95.592","CLASSIFICATION_TYPE":"U","CENTER_NAME":"EARTH","MEAN_MOTION_DOT":"0.00001548","MEAN_ELEMENT_THEORY":"SGP4","ELEMENT_SET_NO":"999","MEAN_ANOMALY":"298.0013","SITE":"AFETR","COUNTRY_CODE":"US","INCLINATION":"53.0548","REV_AT_EPOCH":"7159","DECAY_DATE":null,"PERIAPSIS":"546.104","MEAN_MOTION_DDOT":"0.0000000000000","OBJECT_TYPE":"PAYLOAD","TLE_LINE2":"2 47561  53.0548 132.6398 0001587  62.1137 298.0013 15.06403291 71599","EPOCH":"2022-05-21T16:22:06.997152","RA_OF_ASC_NODE":"132.6398"},{"ARG_OF_PERICENTER":"36.7267","EPHEMERIS_TYPE":"0","BSTAR":"0.00010579000000","MEAN_MOTION":"15.06399098","FILE":"3457577","APOAPSIS":"549.016","LAUNCH_DATE":"2021-02-04","OBJECT_NAME":"STARLINK-1961","RCS_SIZE":"LARGE","TLE_LINE1":"1 47562U 21009Q   22141.69677598  .00001294  00000-0  10579-3 0  9994","ECCENTRICITY":"0.00025980","SEMIMAJOR_AXIS":"6925.351","REF_FRAME":"TEME","GP_ID":"204191589","CLASSIFICATION_TYPE":"U","PERIOD":"95.592","OBJECT_ID":"2021-009Q","NORAD_CAT_ID":"47562","TIME_SYSTEM":"UTC","MEAN_MOTION_DOT":"0.00001294","CENTER_NAME":"EARTH","MEAN_ELEMENT_THEORY":"SGP4","ELEMENT_SET_NO":"999","SITE":"AFETR","MEAN_ANOMALY":"323.3900","DECAY_DATE":null,"REV_AT_EPOCH":"7159","INCLINATION":"53.0535","COUNTRY_CODE":"US","MEAN_MOTION_DDOT":"0.0000000000000","PERIAPSIS":"545.417","OBJECT_TYPE":"PAYLOAD","RA_OF_ASC_NODE":"132.5616","EPOCH":"2022-05-21T16:43:21.444672","TLE_LINE2":"2 47562  53.0535 132.5616 0002598  36.7267 323.3900 15.06399098 71598"},{"TLE_LINE1":"1 47563U 21009R   22141.38715522 -.00000931  00000-0 -43582-4 0  9991","RCS_SIZE":"LARGE","OBJECT_NAME":"STARLINK-1962","LAUNCH_DATE":"2021-02-04","MEAN_MOTION":"15.06391327","FILE":"3457373","APOAPSIS":"548.780","EPHEMERIS_TYPE":"0","BSTAR":"-0.00004358200000","ARG_OF_PERICENTER":"44.7767","NORAD_CAT_ID":"47563","TIME_SYSTEM":"UTC","OBJECT_ID":"2021-009R","CLASSIFICATION_TYPE":"U","PERIOD":"95.593","GP_ID":"204165894","SEMIMAJOR_AXIS":"6925.375","REF_FRAME":"TEME","ECCENTRICITY":"0.00022240","MEAN_ANOMALY":"315.3401","SITE":"AFETR","ELEMENT_SET_NO":"999","MEAN_ELEMENT_THEORY":"SGP4","CENTER_NAME":"EARTH","MEAN_MOTION_DOT":"-0.00000931","TLE_LINE2":"2 47563  53.0532 133.9552 0002224  44.7767 315.3401 15.06391327 72146","RA_OF_ASC_NODE":"133.9552","EPOCH":"2022-05-21T09:17:30.211008","OBJECT_TYPE":"PAYLOAD","MEAN_MOTION_DDOT":"0.0000000000000","PERIAPSIS":"545.700","INCLINATION":"53.0532","COUNTRY_CODE":"US","DECAY_DATE":null,"REV_AT_EPOCH":"7214"},{"MEAN_ELEMENT_THEORY":"SGP4","MEAN_MOTION_DOT":"0.00002651","CENTER_NAME":"EARTH","SITE":"AFETR","MEAN_ANOMALY":"311.2912","ELEMENT_SET_NO":"999","PERIAPSIS":"545.675","MEAN_MOTION_DDOT":"0.0000000000000","REV_AT_EPOCH":"7172","DECAY_DATE":null,"COUNTRY_CODE":"US","INCLINATION":"53.0539","EPOCH":"2022-05-21T15:40:59.101248","RA_OF_ASC_NODE":"122.7653","TLE_LINE2":"2 47564  53.0539 122.7653 0002226  48.8268 311.2912 15.06398887 71728","OBJECT_TYPE":"PAYLOAD","ARG_OF_PERICENTER":"48.8268","BSTAR":"0.00019683000000","EPHEMERIS_TYPE":"0","OBJECT_NAME":"STARLINK-1963","RCS_SIZE":"LARGE","TLE_LINE1":"1 47564U 21009S   22141.65346182  .00002651  00000-0  19683-3 0  9997","APOAPSIS":"548.759","FILE":"3457577","MEAN_MOTION":"15.06398887","LAUNCH_DATE":"2021-02-04","GP_ID":"204193076","ECCENTRICITY":"0.00022260","REF_FRAME":"TEME","SEMIMAJOR_AXIS":"6925.352","PERIOD":"95.592","CLASSIFICATION_TYPE":"U","NORAD_CAT_ID":"47564","OBJECT_ID":"2021-009S","TIME_SYSTEM":"UTC"},{"TLE_LINE2":"2 47565  53.0544 122.7774 0002349  46.2291 313.8892 15.06394619 71727","EPOCH":"2022-05-21T15:35:40.973856","RA_OF_ASC_NODE":"122.7774","OBJECT_TYPE":"PAYLOAD","PERIAPSIS":"545.603","MEAN_MOTION_DDOT":"0.0000000000000","COUNTRY_CODE":"US","INCLINATION":"53.0544","REV_AT_EPOCH":"7172","DECAY_DATE":null,"MEAN_ANOMALY":"313.8892","SITE":"AFETR","ELEMENT_SET_NO":"999","MEAN_ELEMENT_THEORY":"SGP4","CENTER_NAME":"EARTH","MEAN_MOTION_DOT":"0.00000447","NORAD_CAT_ID":"47565","TIME_SYSTEM":"UTC","OBJECT_ID":"2021-009T","PERIOD":"95.592","CLASSIFICATION_TYPE":"U","GP_ID":"204192840","REF_FRAME":"TEME","SEMIMAJOR_AXIS":"6925.365","ECCENTRICITY":"0.00023490","TLE_LINE1":"1 47565U 21009T   22141.64977979  .00000447  00000-0  48930-4 0  9990","RCS_SIZE":"LARGE","OBJECT_NAME":"STARLINK-1964","LAUNCH_DATE":"2021-02-04","APOAPSIS":"548.857","MEAN_MOTION":"15.06394619","FILE":"3457577","BSTAR":"0.00004893000000","EPHEMERIS_TYPE":"0","ARG_OF_PERICENTER":"46.2291"},{"PERIOD":"95.592","CLASSIFICATION_TYPE":"U","OBJECT_ID":"2021-009U","NORAD_CAT_ID":"47566","TIME_SYSTEM":"UTC","ECCENTRICITY":"0.00020020","SEMIMAJOR_AXIS":"6925.353","REF_FRAME":"TEME","GP_ID":"204192076","MEAN_MOTION":"15.06398453","FILE":"3457577","APOAPSIS":"548.605","LAUNCH_DATE":"2021-02-04","RCS_SIZE":"LARGE","OBJECT_NAME":"STARLINK-1965","TLE_LINE1":"1 47566U 21009U   22141.90871082  .00002264  00000-0  17086-3 0  9994","ARG_OF_PERICENTER":"41.2015","EPHEMERIS_TYPE":"0","BSTAR":"0.00017086000000","OBJECT_TYPE":"PAYLOAD","RA_OF_ASC_NODE":"111.6198","EPOCH":"2022-05-21T21:48:32.614848","TLE_LINE2":"2 47566  53.0550 111.6198 0002002  41.2015 318.9125 15.06398453 71902","DECAY_DATE":null,"REV_AT_EPOCH":"7190","INCLINATION":"53.0550","COUNTRY_CODE":"US","MEAN_MOTION_DDOT":"0.0000000000000","PERIAPSIS":"545.832","ELEMENT_SET_NO":"999","SITE":"AFETR","MEAN_ANOMALY":"318.9125","MEAN_MOTION_DOT":"0.00002264","CENTER_NAME":"EARTH","MEAN_ELEMENT_THEORY":"SGP4"},{"NORAD_CAT_ID":"47567","OBJECT_ID":"2021-009V","TIME_SYSTEM":"UTC","CLASSIFICATION_TYPE":"U","PERIOD":"95.593","GP_ID":"204192326","SEMIMAJOR_AXIS":"6925.375","REF_FRAME":"TEME","ECCENTRICITY":"0.00019170","TLE_LINE1":"1 47567U 21009V   22141.74654496  .00001119  00000-0  94039-4 0  9997","OBJECT_NAME":"STARLINK-1966","RCS_SIZE":"LARGE","LAUNCH_DATE":"2021-02-04","FILE":"3457577","MEAN_MOTION":"15.06391352","APOAPSIS":"548.568","EPHEMERIS_TYPE":"0","BSTAR":"0.00009403900000","ARG_OF_PERICENTER":"46.4618","TLE_LINE2":"2 47567  53.0534 152.3469 0001917  46.4618 313.6530 15.06391352 71316","RA_OF_ASC_NODE":"152.3469","EPOCH":"2022-05-21T17:55:01.484544","OBJECT_TYPE":"PAYLOAD","MEAN_MOTION_DDOT":"0.0000000000000","PERIAPSIS":"545.912","INCLINATION":"53.0534","COUNTRY_CODE":"US","DECAY_DATE":null,"REV_AT_EPOCH":"7131","MEAN_ANOMALY":"313.6530","SITE":"AFETR","ELEMENT_SET_NO":"999","MEAN_ELEMENT_THEORY":"SGP4","CENTER_NAME":"EARTH","MEAN_MOTION_DOT":"0.00001119"},{"EPHEMERIS_TYPE":"0","BSTAR":"-0.00006489700000","ARG_OF_PERICENTER":"44.4214","TLE_LINE1":"1 47568U 21009W   22141.50695044 -.00001248  00000-0 -64897-4 0  9990","OBJECT_NAME":"STARLINK-1967","RCS_SIZE":"LARGE","LAUNCH_DATE":"2021-02-04","FILE":"3457102","MEAN_MOTION":"15.06394120","APOAPSIS":"548.662","GP_ID":"204156029","SEMIMAJOR_AXIS":"6925.367","REF_FRAME":"TEME","ECCENTRICITY":"0.00020650","NORAD_CAT_ID":"47568","TIME_SYSTEM":"UTC","OBJECT_ID":"2021-009W","CLASSIFICATION_TYPE":"U","PERIOD":"95.593","MEAN_ELEMENT_THEORY":"SGP4","CENTER_NAME":"EARTH","MEAN_MOTION_DOT":"-0.00001248","MEAN_ANOMALY":"315.6941","SITE":"AFETR","ELEMENT_SET_NO":"999","MEAN_MOTION_DDOT":"0.0000000000000","PERIAPSIS":"545.801","INCLINATION":"53.0543","COUNTRY_CODE":"US","DECAY_DATE":null,"REV_AT_EPOCH":"7128","TLE_LINE2":"2 47568  53.0543 153.4128 0002065  44.4214 315.6941 15.06394120 71286","RA_OF_ASC_NODE":"153.4128","EPOCH":"2022-05-21T12:10:00.518016","OBJECT_TYPE":"PAYLOAD"}];
